IRIDIUM 112             
1 41925U 17003J   25352.92145885  .00000069  00000+0  17727-4 0  9993
2 41925  86.3985 163.6316 0001859  88.9963 271.1446 14.34217944467432
IRIDIUM 111             
1 41926U 17003K   25353.18784963  .00000034  00000+0  50776-5 0  9993
2 41926  86.3986 163.5868 0002011  93.9808 266.1618 14.34217855467458
IRIDIUM 113             
1 42803U 17039A   25353.09804552  .00000123  00000+0  36937-4 0  9995
2 42803  86.3967  37.4375 0001992  94.6110 265.5313 14.34218407445371
IRIDIUM 123             
1 42804U 17039B   25353.13952586  .00000238  00000+0  77973-4 0  9994
2 42804  86.3964  68.9042 0002181 104.5696 255.5742 14.34218348444143
IRIDIUM 120             
1 42805U 17039C   25353.09170431  .00000129  00000+0  38870-4 0  9993
2 42805  86.3958  37.2460 0002503  94.8161 265.3321 14.34218307445368
IRIDIUM 115             
1 42806U 17039D   25353.20505425  .00000302  00000+0  83664-4 0  9996
2 42806  86.4493  37.3025 0002618 103.8008 256.3485 14.43278541448304
IRIDIUM 118             
1 42807U 17039E   25353.24100730  .00000173  00000+0  54617-4 0  9993
2 42807  86.3965  68.8608 0001975  97.1319 263.0101 14.34216546444155
IRIDIUM 117             
1 42808U 17039F   25353.19026436  .00000232  00000+0  75661-4 0  9996
2 42808  86.3964  68.8412 0002119 102.4597 257.6836 14.34219129444173
